{
  "norad_id": 60411,
  "name": "STARLINK-32244",
  "history": [
    {
      "epoch": "2026-03-28T14:30:35.489952Z",
      "apogee_km": 476.09678523664024,
      "perigee_km": 474.3793294472689,
      "latitude_deg": -2.7823072963018715e-05,
      "longitude_deg": 111.26646995286875,
      "height_km": 475.8233318371117,
      "semi_major_axis_km": 6853.375057341954,
      "eccentricity": 0.0001253,
      "inclination_deg": 53.1602,
      "raan_deg": 154.937,
      "arg_perigee_deg": 68.6258,
      "mean_anomaly_deg": 291.4876,
      "mean_motion_rev_day": 15.30192301
    }
  ]
}